TIANMU-1 13             
1 58647U 23205C   26069.00057913  .00008299  00000+0  32666-3 0  9993
2 58647  97.3565  92.1641 0006402 331.9635  28.1258 15.25862583122378
GEOSCAN 1 (RS92S1)      
1 64880U 25155E   26068.94728989  .00014993  00000+0  54367-3 0  9995
2 64880  97.4463  37.4030 0008709 153.6429 206.5255 15.28410635 65609
